[{"OBJECT_NAME":"GEOSCAN 5 (RS92S5)","OBJECT_ID":"2025-155R","EPOCH":"2026-03-09T22:01:07.273920","MEAN_MOTION":15.30265233,"ECCENTRICITY":0.00070849,"INCLINATION":97.4462,"RA_OF_ASC_NODE":37.7456,"ARG_OF_PERICENTER":154.5846,"MEAN_ANOMALY":205.5745,"EPHEMERIS_TYPE":0,"CLASSIFICATION_TYPE":"U","NORAD_CAT_ID":64891,"ELEMENT_SET_NO":999,"REV_AT_EPOCH":6562,"BSTAR":0.00068639307,"MEAN_MOTION_DOT":0.00020065,"MEAN_MOTION_DDOT":0},{"OBJECT_NAME":"STARLINK-34997","OBJECT_ID":"2025-192Q","EPOCH":"2026-03-09T22:00:01.999584","MEAN_MOTION":15.30190228,"ECCENTRICITY":8.283e-5,"INCLINATION":53.1578,"RA_OF_ASC_NODE":231.3164,"ARG_OF_PERICENTER":37.1136,"MEAN_ANOMALY":145.9473,"EPHEMERIS_TYPE":0,"CLASSIFICATION_TYPE":"U","NORAD_CAT_ID":65418,"ELEMENT_SET_NO":999,"REV_AT_EPOCH":578,"BSTAR":0.002464819,"MEAN_MOTION_DOT":0.00073342,"MEAN_MOTION_DDOT":0}]
